NORAD_CAT_ID,OBJECT_NAME,OBJECT_TYPE,EPOCH,MEAN_MOTION,ECCENTRICITY,INCLINATION,RA_OF_ASC_NODE,ARG_OF_PERICENTER,MEAN_ANOMALY,BSTAR,MEAN_MOTION_DOT,MEAN_MOTION_DDOT,TLE_LINE0,TLE_LINE1,TLE_LINE2,SEMIMAJOR_AXIS,PERIOD,APOGEE,PERIGEE,DECAYED
53160.0,STARLINK-4096,PAYLOAD,2024-05-22 11:30:18,15.08832098,0.0001525,53.2163,229.9626,113.1558,246.9595,0.00025853,3.828e-05,0.0,0 STARLINK-4096,1 53160U 22083AE  24143.47937842  .00003828  00000-0  25853-3 0  9995,2 53160  53.2163 229.9626 0001525 113.1558 246.9595 15.08832098102928,6917.905,95.438,540.825,538.715,0.0
53160.0,STARLINK-4096,PAYLOAD,2024-05-23 12:56:27,15.08874542,0.0001347,53.2156,225.2105,102.3829,257.7314,0.00095601,0.00014974,0.0,0 STARLINK-4096,1 53160U 22083AE  24144.53920682  .00014974  00000-0  95601-3 0  9999,2 53160  53.2156 225.2105 0001347 102.3829 257.7314 15.08874542103081,6917.775,95.435,540.572,538.708,0.0
53160.0,STARLINK-4096,PAYLOAD,2024-05-24 04:50:18,15.08866457,0.0001442,53.2167,222.2349,97.3117,262.8039,0.00052664,8.109e-05,0.0,0 STARLINK-4096,1 53160U 22083AE  24145.20159974  .00008109  00000-0  52664-3 0  9997,2 53160  53.2167 222.2349 0001442  97.3117 262.8039 15.08866457103187,6917.8,95.436,540.662,538.667,0.0
53160.0,STARLINK-4096,PAYLOAD,2024-05-24 12:47:13,15.08858129,0.0001485,53.2148,220.7409,135.9738,224.1373,0.00032307,4.86e-05,0.0,0 STARLINK-4096,1 53160U 22083AE  24145.53279690  .00004860  00000-0  32307-3 0  9993,2 53160  53.2148 220.7409 0001485 135.9738 224.1373 15.08858129103236,6917.825,95.436,540.717,538.663,0.0
53160.0,STARLINK-4096,PAYLOAD,2024-05-24 22:19:32,15.08849836,7.74e-05,53.2153,218.9602,113.498,246.6094,0.00011547,1.551e-05,0.0,0 STARLINK-4096,1 53160U 22083AE  24145.93023445  .00001551  00000-0  11547-3 0  9999,2 53160  53.2153 218.9602 0000774 113.4980 246.6094 15.08849836102666,6917.85,95.437,540.251,539.18,0.0
53160.0,STARLINK-4096,PAYLOAD,2024-05-25 11:02:38,15.08829484,0.0001441,53.2153,216.5812,87.6675,272.4482,-0.00013221,-2.391e-05,0.0,0 STARLINK-4096,1 53160U 22083AE  24146.46016480 -.00002391  00000-0 -13221-3 0  9995,2 53160  53.2153 216.5812 0001441  87.6675 272.4482 15.08829484103372,6917.913,95.438,540.774,538.781,0.0
53160.0,STARLINK-4096,PAYLOAD,2024-05-26 10:53:25,15.08840866,0.0001351,53.215,212.1224,80.6541,279.4603,0.00062719,9.708e-05,0.0,0 STARLINK-4096,1 53160U 22083AE  24147.45377072  .00009708  00000-0  62719-3 0  9995,2 53160  53.2150 212.1224 0001351  80.6541 279.4603 15.08840866103529,6917.878,95.437,540.677,538.808,0.0
53160.0,STARLINK-4096,PAYLOAD,2024-05-27 10:44:12,15.0884364,0.0001374,53.2155,207.6607,90.7903,269.3247,0.000242,3.566e-05,0.0,0 STARLINK-4096,1 53160U 22083AE  24148.44736885  .00003566  00000-0  24200-3 0  9995,2 53160  53.2155 207.6607 0001374  90.7903 269.3247 15.08843640103678,6917.869,95.437,540.685,538.784,0.0
53160.0,STARLINK-4096,PAYLOAD,2024-05-28 04:13:27,15.08838286,0.000144,53.2154,204.39,88.6797,271.436,2.3231e-05,8.2e-07,0.0,0 STARLINK-4096,1 53160U 22083AE  24149.17601085  .00000082  00000-0  23231-4 0  9993,2 53160  53.2154 204.3900 0001440  88.6797 271.4360 15.08838286103780,6917.886,95.438,540.747,538.754,0.0
53160.0,STARLINK-4096,PAYLOAD,2024-05-28 10:35:00,15.08833205,0.0001363,53.2155,203.1994,95.5304,264.5844,-4.8336e-05,-1.057e-05,0.0,0 STARLINK-4096,1 53160U 22083AE  24149.44097384 -.00001057  00000-0 -48336-4 0  9992,2 53160  53.2155 203.1994 0001363  95.5304 264.5844 15.08833205103197,6917.901,95.438,540.709,538.823,0.0
53160.0,STARLINK-4096,PAYLOAD,2024-05-29 08:50:23,15.08839717,0.0001309,53.2162,199.038,101.6039,258.5101,8.4831e-05,1.062e-05,0.0,0 STARLINK-4096,1 53160U 22083AE  24150.36833130  .00001062  00000-0  84831-4 0  9996,2 53160  53.2162 199.0380 0001309 101.6039 258.5101 15.08839717103969,6917.881,95.438,540.652,538.841,0.0
53160.0,STARLINK-4096,PAYLOAD,2024-05-30 11:51:56,15.08846784,0.0001186,53.2156,193.9841,102.9233,257.1892,0.00016852,2.396e-05,0.0,0 STARLINK-4096,1 53160U 22083AE  24151.49440853  .00002396  00000-0  16852-3 0  9995,2 53160  53.2156 193.9841 0001186 102.9233 257.1892 15.08846784103504,6917.86,95.437,540.545,538.904,0.0
53160.0,STARLINK-4096,PAYLOAD,2024-05-30 11:51:57,15.08843562,0.0001219,53.2156,193.9829,104.5607,255.5521,0.00019408,2.803e-05,0.0,0 STARLINK-4096,1 53160U 22083AE  24151.49440981  .00002803  00000-0  19408-3 0  9990,2 53160  53.2156 193.9829 0001219 104.5607 255.5521 15.08843562104132,6917.87,95.437,540.578,538.891,0.0
53160.0,STARLINK-4096,PAYLOAD,2024-05-31 08:31:57,15.08847934,0.0001296,53.2163,190.1165,103.9762,256.1375,8.1901e-05,1.016e-05,0.0,0 STARLINK-4096,1 53160U 22083AE  24152.35552714  .00001016  00000-0  81901-4 0  9997,2 53160  53.2163 190.1165 0001296 103.9762 256.1375 15.08847934103637,6917.856,95.437,540.618,538.825,0.0
53160.0,STARLINK-4096,PAYLOAD,2024-05-31 19:39:39,15.08850917,0.000125,53.2162,188.0338,86.9376,273.1759,3.5175e-05,2.72e-06,0.0,0 STARLINK-4096,1 53160U 22083AE  24152.81920352  .00000272  00000-0  35175-4 0  9990,2 53160  53.2162 188.0338 0001250  86.9376 273.1759 15.08850917104333,6917.847,95.437,540.577,538.847,0.0
53160.0,STARLINK-4096,PAYLOAD,2024-06-01 09:58:07,15.08842451,0.0001328,53.2162,185.3587,93.2265,266.8879,3.7945e-05,3.16e-06,0.0,0 STARLINK-4096,1 53160U 22083AE  24153.41536881  .00000316  00000-0  37945-4 0  9993,2 53160  53.2162 185.3587 0001328  93.2265 266.8879 15.08842451104429,6917.873,95.437,540.657,538.819,0.0
53160.0,STARLINK-4096,PAYLOAD,2024-06-02 08:13:32,15.08826906,0.0001375,53.2166,181.1958,91.2596,268.8554,0.00016042,2.265e-05,0.0,0 STARLINK-4096,1 53160U 22083AE  24154.34273740  .00002265  00000-0  16042-3 0  9997,2 53160  53.2166 181.1958 0001375  91.2596 268.8554 15.08826906104560,6917.92,95.438,540.737,538.834,0.0
53160.0,STARLINK-4096,PAYLOAD,2024-06-03 04:53:32,15.08839813,0.0001389,53.2165,177.33,89.6673,270.4479,0.00010707,1.416e-05,0.0,0 STARLINK-4096,1 53160U 22083AE  24155.20385121  .00001416  00000-0  10707-3 0  9999,2 53160  53.2165 177.3300 0001389  89.6673 270.4479 15.08839813104699,6917.881,95.438,540.707,538.785,0.0
53160.0,STARLINK-4096,PAYLOAD,2024-06-03 11:15:05,15.08841951,0.0001475,53.217,176.1401,95.3009,264.8151,8.8172e-05,1.116e-05,0.0,0 STARLINK-4096,1 53160U 22083AE  24155.46881063  .00001116  00000-0  88172-4 0  9992,2 53160  53.2170 176.1401 0001475  95.3009 264.8151 15.08841951104103,6917.874,95.437,540.76,538.719,0.0
53160.0,STARLINK-4096,PAYLOAD,2024-06-04 07:55:05,15.08842421,0.0001383,53.2167,172.2747,92.9748,267.1402,0.00014222,1.976e-05,0.0,0 STARLINK-4096,1 53160U 22083AE  24156.32992970  .00001976  00000-0  14222-3 0  9996,2 53160  53.2167 172.2747 0001383  92.9748 267.1402 15.08842421104861,6917.873,95.437,540.695,538.781,0.0
53160.0,STARLINK-4096,PAYLOAD,2024-06-04 17:27:24,15.08845779,0.0001366,53.2164,170.4904,92.5047,267.6102,0.00014233,1.978e-05,0.0,0 STARLINK-4096,1 53160U 22083AE  24156.72736749  .00001978  00000-0  14233-3 0  9994,2 53160  53.2164 170.4904 0001366  92.5047 267.6102 15.08845779104290,6917.863,95.437,540.673,538.783,0.0
53160.0,STARLINK-4096,PAYLOAD,2024-06-05 07:45:52,15.08847286,0.0001375,53.2174,167.819,88.2817,271.8332,0.00016007,2.261e-05,0.0,0 STARLINK-4096,1 53160U 22083AE  24157.32352541  .00002261  00000-0  16007-3 0  9992,2 53160  53.2174 167.8190 0001375  88.2817 271.8332 15.08847286104382,6917.858,95.437,540.674,538.772,0.0
53160.0,STARLINK-4096,PAYLOAD,2024-06-05 17:18:10,15.08860695,0.0001546,53.2176,166.034,95.27,264.8468,0.00019954,2.891e-05,0.0,0 STARLINK-4096,1 53160U 22083AE  24157.72095350  .00002891  00000-0  19954-3 0  9991,2 53160  53.2176 166.0340 0001546  95.2700 264.8468 15.08860695105079,6917.817,95.436,540.752,538.613,0.0
53160.0,STARLINK-4096,PAYLOAD,2024-06-06 04:25:53,15.08836035,0.0001522,53.2164,163.9505,97.2054,262.9111,-9.1439e-05,-1.743e-05,0.0,0 STARLINK-4096,1 53160U 22083AE  24158.18464681 -.00001743  00000-0 -91439-4 0  9995,2 53160  53.2164 163.9505 0001522  97.2054 262.9111 15.08836035105146,6917.893,95.438,540.81,538.705,0.0
53160.0,STARLINK-4096,PAYLOAD,2024-06-06 07:36:40,15.08835469,0.000152,53.2176,163.3552,95.8096,264.307,2.7858e-07,-2.84e-06,0.0,0 STARLINK-4096,1 53160U 22083AE  24158.31713275 -.00000284  00000-0  27858-6 0  9990,2 53160  53.2176 163.3552 0001520  95.8096 264.3070 15.08835469104535,6917.894,95.438,540.811,538.708,0.0
53160.0,STARLINK-4096,PAYLOAD,2024-06-07 01:05:55,15.08830992,0.0001546,53.2182,160.084,91.7728,268.3441,-1.2272e-05,-4.83e-06,0.0,0 STARLINK-4096,1 53160U 22083AE  24159.04577809 -.00000483  00000-0 -12272-4 0  9996,2 53160  53.2182 160.0840 0001546  91.7728 268.3441 15.08830992105275,6917.908,95.438,540.842,538.703,0.0
53160.0,STARLINK-4096,PAYLOAD,2024-06-07 16:59:46,15.08839739,0.0001462,53.2172,157.11,89.4561,270.6598,-8.6223e-05,-1.66e-05,0.0,0 STARLINK-4096,1 53160U 22083AE  24159.70817645 -.00001660  00000-0 -86223-4 0  9999,2 53160  53.2172 157.1100 0001462  89.4561 270.6598 15.08839739105374,6917.881,95.438,540.758,538.735,0.0
53160.0,STARLINK-4096,PAYLOAD,2024-06-08 07:18:14,15.08836467,0.0001445,53.2168,154.4333,90.3853,269.7305,0.00014392,2.003e-05,0.0,0 STARLINK-4096,1 53160U 22083AE  24160.30433683  .00002003  00000-0  14392-3 0  9990,2 53160  53.2168 154.4333 0001445  90.3853 269.7305 15.08836467104833,6917.891,95.438,540.756,538.757,0.0
53160.0,STARLINK-4096,PAYLOAD,2024-06-08 16:50:33,15.08839537,0.0001441,53.2154,152.6485,88.0449,272.0708,0.00020461,2.97e-05,0.0,0 STARLINK-4096,1 53160U 22083AE  24160.70177742  .00002970  00000-0  20461-3 0  9992,2 53160  53.2154 152.6485 0001441  88.0449 272.0708 15.08839537104898,6917.882,95.438,540.744,538.75,0.0
53160.0,STARLINK-4096,PAYLOAD,2024-06-09 05:33:38,15.08838669,0.0001433,53.2152,150.2691,90.4122,269.7035,0.00024395,3.597e-05,0.0,0 STARLINK-4096,1 53160U 22083AE  24161.23170081  .00003597  00000-0  24395-3 0  9996,2 53160  53.2152 150.2691 0001433  90.4122 269.7035 15.08838669105606,6917.884,95.438,540.741,538.758,0.0
